{"type": "FeatureCollection", "features": [ {"type": "Feature", "properties": {"norad_id": 66609, "name": "STARLINK-36034", "group": "last-30-days", "lat": 38.268847299398544, "lon": -102.74158209406868, "alt_km": 410.4335641594698, "timestamp": "2025-12-11T13:55:00.914696+00:00", "meta": {"OBJECT_NAME": "STARLINK-36034", "OBJECT_ID": "2025-270X", "EPOCH": "2025-12-11T06:00:02.999808", "MEAN_MOTION": 15.50637011, "ECCENTRICITY": 0.00020967, "INCLINATION": 42.9999, "RA_OF_ASC_NODE": 201.3479, "ARG_OF_PERICENTER": 257.598, "MEAN_ANOMALY": 124.3312, "EPHEMERIS_TYPE": 0, "CLASSIFICATION_TYPE": "U", "NORAD_CAT_ID": 66609, "ELEMENT_SET_NO": 999, "REV_AT_EPOCH": 400, "BSTAR": -0.002494352, "MEAN_MOTION_DOT": -0.00144318, "MEAN_MOTION_DDOT": 0}, "tle": {"line1": "1 66609U 25270X   25345.25003472 -.00144318  00000+0 -24944-2 0  9992", "line2": "2 66609  42.9999 201.3479 0002096 257.5980 124.3312 15.50637011  4009"}}, "geometry": {"type": "Point", "coordinates": [-102.74158209406868, 38.268847299398544]}}, {"type": "Feature", "properties": {"norad_id": 66610, "name": "STARLINK-35680", "group": "last-30-days", "lat": 38.94523432024742, "lon": -100.43760643737681, "alt_km": 410.3263062728238, "timestamp": "2025-12-11T13:55:00.914708+00:00", "meta": {"OBJECT_NAME": "STARLINK-35680", "OBJECT_ID": "2025-270Y", "EPOCH": "2025-12-11T06:00:02.999808", "MEAN_MOTION": 15.50654477, "ECCENTRICITY": 0.00021174, "INCLINATION": 43, "RA_OF_ASC_NODE": 201.3445, "ARG_OF_PERICENTER": 263.2377, "MEAN_ANOMALY": 120.6048, "EPHEMERIS_TYPE": 0, "CLASSIFICATION_TYPE": "U", "NORAD_CAT_ID": 66610, "ELEMENT_SET_NO": 999, "REV_AT_EPOCH": 427, "BSTAR": -0.0030347999, "MEAN_MOTION_DOT": -0.00174945, "MEAN_MOTION_DDOT": 0}, "tle": {"line1": "1 66610U 25270Y   25345.25003472 -.00174945  00000+0 -30348-2 0  9998", "line2": "2 66610  43.0000 201.3445 0002117 263.2377 120.6048 15.50654477  4276"}}, "geometry": {"type": "Point", "coordinates": [-100.43760643737681, 38.94523432024742]}}, {"type": "Feature", "properties": {"norad_id": 66611, "name": "STARLINK-35583", "group": "last-30-days", "lat": 39.57183728432976, "lon": -98.10536273756449, "alt_km": 410.2260218852771, "timestamp": "2025-12-11T13:55:00.914720+00:00", "meta": {"OBJECT_NAME": "STARLINK-35583", "OBJECT_ID": "2025-270Z", "EPOCH": "2025-12-11T06:00:02.999808", "MEAN_MOTION": 15.50648324, "ECCENTRICITY": 0.00021049, "INCLINATION": 42.9998, "RA_OF_ASC_NODE": 201.339, "ARG_OF_PERICENTER": 262.6602, "MEAN_ANOMALY": 123.0976, "EPHEMERIS_TYPE": 0, "CLASSIFICATION_TYPE": "U", "NORAD_CAT_ID": 66611, "ELEMENT_SET_NO": 999, "REV_AT_EPOCH": 427, "BSTAR": -0.0027756016, "MEAN_MOTION_DOT": -0.00160293, "MEAN_MOTION_DDOT": 0}, "tle": {"line1": "1 66611U 25270Z   25345.25003472 -.00160293  00000+0 -27756-2 0  9999", "line2": "2 66611  42.9998 201.3390 0002104 262.6602 123.0976 15.50648324  4271"}}, "geometry": {"type": "Point", "coordinates": [-98.10536273756449, 39.57183728432976]}}, {"type": "Feature", "properties": {"norad_id": 66612, "name": "STARLINK-36039", "group": "last-30-days", "lat": 40.15168234685921, "lon": -95.7296402140463, "alt_km": 410.2008130808417, "timestamp": "2025-12-11T13:55:00.914730+00:00", "meta": {"OBJECT_NAME": "STARLINK-36039", "OBJECT_ID": "2025-270AA", "EPOCH": "2025-12-11T06:00:02.999808", "MEAN_MOTION": 15.50630555, "ECCENTRICITY": 0.00022489, "INCLINATION": 42.9999, "RA_OF_ASC_NODE": 201.3333, "ARG_OF_PERICENTER": 257.947, "MEAN_ANOMALY": 129.7259, "EPHEMERIS_TYPE": 0, "CLASSIFICATION_TYPE": "U", "NORAD_CAT_ID": 66612, "ELEMENT_SET_NO": 999, "REV_AT_EPOCH": 416, "BSTAR": -0.001748284, "MEAN_MOTION_DOT": -0.00101778, "MEAN_MOTION_DDOT": 0}, "tle": {"line1": "1 66612U 25270AA  25345.25003472 -.00101778  00000+0 -17483-2 0  9999", "line2": "2 66612  42.9999 201.3333 0002248 257.9470 129.7259 15.50630555  4161"}}, "geometry": {"type": "Point", "coordinates": [-95.7296402140463, 40.15168234685921]}}, {"type": "Feature", "properties": {"norad_id": 66613, "name": "STARLINK-36037", "group": "last-30-days", "lat": 40.68244042291071, "lon": -93.30938741530854, "alt_km": 410.0842255043053, "timestamp": "2025-12-11T13:55:00.914740+00:00", "meta": {"OBJECT_NAME": "STARLINK-36037", "OBJECT_ID": "2025-270AB", "EPOCH": "2025-12-11T06:00:02.999808", "MEAN_MOTION": 15.50648646, "ECCENTRICITY": 0.00021206, "INCLINATION": 42.9997, "RA_OF_ASC_NODE": 201.329, "ARG_OF_PERICENTER": 263.311, "MEAN_ANOMALY": 126.2812, "EPHEMERIS_TYPE": 0, "CLASSIFICATION_TYPE": "U", "NORAD_CAT_ID": 66613, "ELEMENT_SET_NO": 999, "REV_AT_EPOCH": 416, "BSTAR": -0.0027907406, "MEAN_MOTION_DOT": -0.0016115, "MEAN_MOTION_DDOT": 0}, "tle": {"line1": "1 66613U 25270AB  25345.25003472 -.00161150  00000+0 -27907-2 0  9992", "line2": "2 66613  42.9997 201.3290 0002120 263.3110 126.2812 15.50648646  4160"}}, "geometry": {"type": "Point", "coordinates": [-93.30938741530854, 40.68244042291071]}}, {"type": "Feature", "properties": {"norad_id": 66614, "name": "STARLINK-36040", "group": "last-30-days", "lat": 41.58969570552931, "lon": -88.35362751051873, "alt_km": 409.9807388588415, "timestamp": "2025-12-11T13:55:00.914751+00:00", "meta": {"OBJECT_NAME": "STARLINK-36040", "OBJECT_ID": "2025-270AC", "EPOCH": "2025-12-11T06:00:02.999808", "MEAN_MOTION": 15.50674375, "ECCENTRICITY": 0.00021381, "INCLINATION": 42.9999, "RA_OF_ASC_NODE": 201.3192, "ARG_OF_PERICENTER": 264.3933, "MEAN_ANOMALY": 129.029, "EPHEMERIS_TYPE": 0, "CLASSIFICATION_TYPE": "U", "NORAD_CAT_ID": 66614, "ELEMENT_SET_NO": 999, "REV_AT_EPOCH": 400, "BSTAR": -0.0035313856, "MEAN_MOTION_DOT": -0.00202942, "MEAN_MOTION_DDOT": 0}, "tle": {"line1": "1 66614U 25270AC  25345.25003472 -.00202942  00000+0 -35314-2 0  9999", "line2": "2 66614  42.9999 201.3192 0002138 264.3933 129.0290 15.50674375  4009"}}, "geometry": {"type": "Point", "coordinates": [-88.35362751051873, 41.58969570552931]}}, {"type": "Feature", "properties": {"norad_id": 66615, "name": "STARLINK-35988", "group": "last-30-days", "lat": 41.148738690733765, "lon": -90.92327290698516, "alt_km": 409.76177954251034, "timestamp": "2025-12-11T13:55:00.914761+00:00", "meta": {"OBJECT_NAME": "STARLINK-35988", "OBJECT_ID": "2025-270AD", "EPOCH": "2025-12-11T06:00:02.999808", "MEAN_MOTION": 15.50643999, "ECCENTRICITY": 0.00019191, "INCLINATION": 42.9994, "RA_OF_ASC_NODE": 201.3238, "ARG_OF_PERICENTER": 244.0107, "MEAN_ANOMALY": 147.4303, "EPHEMERIS_TYPE": 0, "CLASSIFICATION_TYPE": "U", "NORAD_CAT_ID": 66615, "ELEMENT_SET_NO": 999, "REV_AT_EPOCH": 400, "BSTAR": -0.0015288493, "MEAN_MOTION_DOT": -0.00089227, "MEAN_MOTION_DDOT": 0}, "tle": {"line1": "1 66615U 25270AD  25345.25003472 -.00089227  00000+0 -15288-2 0  9997", "line2": "2 66615  42.9994 201.3238 0001919 244.0107 147.4303 15.50643999  4007"}}, "geometry": {"type": "Point", "coordinates": [-90.92327290698516, 41.148738690733765]}}, {"type": "Feature", "properties": {"norad_id": 66616, "name": "STARLINK-35391", "group": "last-30-days", "lat": 41.960844551524644, "lon": -85.83350611257899, "alt_km": 409.94699544298874, "timestamp": "2025-12-11T13:55:00.914773+00:00", "meta": {"OBJECT_NAME": "STARLINK-35391", "OBJECT_ID": "2025-270AE", "EPOCH": "2025-12-11T06:00:02.999808", "MEAN_MOTION": 15.50671723, "ECCENTRICITY": 0.00021479, "INCLINATION": 42.9999, "RA_OF_ASC_NODE": 201.3147, "ARG_OF_PERICENTER": 263.2296, "MEAN_ANOMALY": 132.1131, "EPHEMERIS_TYPE": 0, "CLASSIFICATION_TYPE": "U", "NORAD_CAT_ID": 66616, "ELEMENT_SET_NO": 999, "REV_AT_EPOCH": 427, "BSTAR": -0.0035156761, "MEAN_MOTION_DOT": -0.00202045, "MEAN_MOTION_DDOT": 0}, "tle": {"line1": "1 66616U 25270AE  25345.25003472 -.00202045  00000+0 -35157-2 0  9990", "line2": "2 66616  42.9999 201.3147 0002147 263.2296 132.1131 15.50671723  4273"}}, "geometry": {"type": "Point", "coordinates": [-85.83350611257899, 41.960844551524644]}}, {"type": "Feature", "properties": {"norad_id": 66617, "name": "STARLINK-35940", "group": "last-30-days", "lat": 52.56189649979554, "lon": -88.88899403630401, "alt_km": 394.66712400638335, "timestamp": "2025-12-11T13:55:00.914785+00:00", "meta": {"OBJECT_NAME": "STARLINK-35940", "OBJECT_ID": "2025-271A", "EPOCH": "2025-12-11T06:00:02.999808", "MEAN_MOTION": 15.56431349, "ECCENTRICITY": 8.247e-05, "INCLINATION": 53.1599, "RA_OF_ASC_NODE": 194.3958, "ARG_OF_PERICENTER": 93.0404, "MEAN_ANOMALY": 301.6245, "EPHEMERIS_TYPE": 0, "CLASSIFICATION_TYPE": "U", "NORAD_CAT_ID": 66617, "ELEMENT_SET_NO": 999, "REV_AT_EPOCH": 400, "BSTAR": -0.032931774, "MEAN_MOTION_DOT": -0.02108061, "MEAN_MOTION_DDOT": 0}, "tle": {"line1": "1 66617U 25271A   25345.25003472 -.02108061  00000+0 -32932-1 0  9994", "line2": "2 66617  53.1599 194.3958 0000824  93.0404 301.6245 15.56431349  4009"}}, "geometry": {"type": "Point", "coordinates": [-88.88899403630401, 52.56189649979554]}}, {"type": "Feature", "properties": {"norad_id": 66618, "name": "STARLINK-35970", "group": "last-30-days", "lat": 33.531229789637166, "lon": -17.099924510422696, "alt_km": 397.67068085840947, "timestamp": "2025-12-11T13:55:00.914797+00:00", "meta": {"OBJECT_NAME": "STARLINK-35970", "OBJECT_ID": "2025-271B", "EPOCH": "2025-12-11T06:00:02.999808", "MEAN_MOTION": 15.56429649, "ECCENTRICITY": 0.00010405, "INCLINATION": 53.1595, "RA_OF_ASC_NODE": 194.2831, "ARG_OF_PERICENTER": 77.6708, "MEAN_ANOMALY": 10.3163, "EPHEMERIS_TYPE": 0, "CLASSIFICATION_TYPE": "U", "NORAD_CAT_ID": 66618, "ELEMENT_SET_NO": 999, "REV_AT_EPOCH": 400, "BSTAR": -0.032890764, "MEAN_MOTION_DOT": -0.02105744, "MEAN_MOTION_DDOT": 0}, "tle": {"line1": "1 66618U 25271B   25345.25003472 -.02105744  00000+0 -32891-1 0  9994", "line2": "2 66618  53.1595 194.2831 0001040  77.6708  10.3163 15.56429649  4004"}}, "geometry": {"type": "Point", "coordinates": [-17.099924510422696, 33.531229789637166]}}]}